NORAD_CAT_ID,OBJECT_NAME,OBJECT_TYPE,EPOCH,MEAN_MOTION,ECCENTRICITY,INCLINATION,RA_OF_ASC_NODE,ARG_OF_PERICENTER,MEAN_ANOMALY,BSTAR,MEAN_MOTION_DOT,MEAN_MOTION_DDOT,TLE_LINE0,TLE_LINE1,TLE_LINE2,SEMIMAJOR_AXIS,PERIOD,APOGEE,PERIGEE,DECAYED
56773.0,STARLINK-6296,PAYLOAD,2023-08-22 23:09:15,15.69927736,0.0003628,69.9983,178.0085,275.8157,84.2625,2.1905e-05,2.422e-05,0.0,0 STARLINK-6296,1 56773U 23078G   23234.96476791  .00002422  00000-0  21905-4 0  9992,2 56773  69.9983 178.0085 0003628 275.8157  84.2625 15.69927736 13441,6737.241,91.724,361.55,356.661,0.0
56773.0,STARLINK-6296,PAYLOAD,2023-08-24 05:44:18,15.69930527,0.0003063,69.9987,174.4265,263.3672,96.7175,-1.8722e-05,-2.464e-05,0.0,0 STARLINK-6296,1 56773U 23078G   23236.23910453 -.00002464  00000-0 -18722-4 0  9993,2 56773  69.9987 174.4265 0003063 263.3672  96.7175 15.69930527 13385,6737.233,91.724,361.161,357.034,0.0
56773.0,STARLINK-6296,PAYLOAD,2023-08-25 04:40:35,15.69927375,0.0003512,69.9983,171.7402,268.7957,91.2836,1.5663e-05,1.671e-05,0.0,0 STARLINK-6296,1 56773U 23078G   23237.19485319  .00001671  00000-0  15663-4 0  9995,2 56773  69.9983 171.7402 0003512 268.7957  91.2836 15.69927375 13794,6737.242,91.724,361.473,356.741,0.0
56773.0,STARLINK-6296,PAYLOAD,2023-08-25 23:01:35,15.69986131,0.0003844,69.9983,169.5904,271.8307,88.2449,-0.00012251,-0.00014957,0.0,0 STARLINK-6296,1 56773U 23078G   23237.95944301 -.00014957  00000-0 -12251-3 0  9992,2 56773  69.9983 169.5904 0003844 271.8307  88.2449 15.69986131 13913,6737.074,91.721,361.528,356.349,0.0
56773.0,STARLINK-6296,PAYLOAD,2023-08-26 05:08:36,15.6995499,0.0003554,69.9982,168.8734,268.5764,91.5025,-4.3576e-05,-5.456e-05,0.0,0 STARLINK-6296,1 56773U 23078G   23238.21431083 -.00005456  00000-0 -43576-4 0  9999,2 56773  69.9982 168.8734 0003554 268.5764  91.5025 15.69954990 13952,6737.163,91.722,361.422,356.633,0.0
56773.0,STARLINK-6296,PAYLOAD,2023-08-26 18:54:23,15.69927896,0.0003197,69.9981,167.2606,261.9333,98.15,1.8308e-05,1.989e-05,0.0,0 STARLINK-6296,1 56773U 23078G   23238.78777101  .00001989  00000-0  18308-4 0  9995,2 56773  69.9981 167.2606 0003197 261.9333  98.1500 15.69927896 14041,6737.24,91.724,361.259,356.951,0.0
56773.0,STARLINK-6296,PAYLOAD,2023-08-26 20:26:08,15.69930302,0.0003145,69.999,167.0836,257.8786,102.2057,2.0502e-05,2.254e-05,0.0,0 STARLINK-6296,1 56773U 23078G   23238.85148571  .00002254  00000-0  20502-4 0  9991,2 56773  69.9990 167.0836 0003145 257.8786 102.2057 15.69930302 13794,6737.233,91.724,361.217,356.98,0.0
56773.0,STARLINK-6296,PAYLOAD,2023-08-26 23:29:39,15.69907906,0.0003328,69.9995,166.7234,266.401,93.6805,-1.9201e-05,-2.519e-05,0.0,0 STARLINK-6296,1 56773U 23078G   23238.97893119 -.00002519  00000-0 -19201-4 0  9999,2 56773  69.9995 166.7234 0003328 266.4010  93.6805 15.69907906 14076,6737.297,91.725,361.405,356.92,0.0
56773.0,STARLINK-6296,PAYLOAD,2023-08-27 05:36:40,15.69911174,0.0003124,69.9986,166.0044,267.4792,92.6046,-1.112e-05,-1.549e-05,0.0,0 STARLINK-6296,1 56773U 23078G   23239.23379857 -.00001549  00000-0 -11120-4 0  9991,2 56773  69.9986 166.0044 0003124 267.4792  92.6046 15.69911174 13853,6737.288,91.725,361.258,357.048,0.0
56773.0,STARLINK-6296,PAYLOAD,2023-08-27 20:54:10,15.69925463,0.0003687,69.9997,164.2154,274.5978,85.4797,1.7059e-05,1.839e-05,0.0,0 STARLINK-6296,1 56773U 23078G   23239.87095860  .00001839  00000-0  17059-4 0  9997,2 56773  69.9997 164.2154 0003687 274.5978  85.4797 15.69925463 13956,6737.247,91.724,361.596,356.628,0.0
56773.0,STARLINK-6296,PAYLOAD,2023-08-27 22:25:55,15.69926056,0.0003213,69.9997,164.0366,268.5758,91.507,2.0101e-05,2.205e-05,0.0,0 STARLINK-6296,1 56773U 23078G   23239.93467510  .00002205  00000-0  20101-4 0  9999,2 56773  69.9997 164.0366 0003213 268.5758  91.5070 15.69926056 14225,6737.246,91.724,361.275,356.946,0.0
56773.0,STARLINK-6296,PAYLOAD,2023-08-28 21:22:12,15.69930329,0.0003462,69.9994,161.349,264.9852,95.0949,5.4808e-06,4.46e-06,0.0,0 STARLINK-6296,1 56773U 23078G   23240.89042279  .00000446  00000-0  54808-5 0  9994,2 56773  69.9994 161.3490 0003462 264.9852  95.0949 15.69930329 14111,6737.233,91.724,361.431,356.766,0.0
56773.0,STARLINK-6296,PAYLOAD,2023-08-29 05:00:58,15.69927197,0.0003525,69.9995,160.4533,265.3452,94.7341,2.2812e-06,6.1e-07,0.0,0 STARLINK-6296,1 56773U 23078G   23241.20900742  .00000061  00000-0  22812-5 0  9991,2 56773  69.9995 160.4533 0003525 265.3452  94.7341 15.69927197 14426,6737.242,91.724,361.482,356.732,0.0
56773.0,STARLINK-6296,PAYLOAD,2023-08-30 05:29:00,15.69921142,0.0003891,69.9988,157.5872,270.5847,89.4903,4.4237e-06,3.19e-06,0.0,0 STARLINK-6296,1 56773U 23078G   23242.22847795  .00000319  00000-0  44237-5 0  9993,2 56773  69.9988 157.5872 0003891 270.5847  89.4903 15.69921142 14589,6737.26,91.724,361.746,356.503,0.0
56773.0,STARLINK-6296,PAYLOAD,2023-08-30 11:36:28,15.69565211,0.0003831,69.9977,156.8721,234.9322,125.1515,-0.0003897,-0.00046132,0.0,0 STARLINK-6296,1 56773U 23078G   23242.48366071 -.00046132  00000-0 -38970-3 0  9994,2 56773  69.9977 156.8721 0003831 234.9322 125.1515 15.69565211 14621,6738.278,91.745,362.725,357.562,0.0
56773.0,STARLINK-6296,PAYLOAD,2023-09-01 01:49:49,15.69924393,0.0003182,69.9966,152.3959,267.3516,92.7315,2.2645e-05,2.511e-05,0.0,0 STARLINK-6296,1 56773U 23078G   23244.07626200  .00002511  00000-0  22645-4 0  9998,2 56773  69.9966 152.3959 0003182 267.3516  92.7315 15.69924393 14871,6737.25,91.724,361.259,356.972,0.0
56773.0,STARLINK-6296,PAYLOAD,2023-09-01 11:00:20,15.69906294,0.0003026,69.9958,151.3205,267.845,92.2399,3.4104e-05,3.887e-05,0.0,0 STARLINK-6296,1 56773U 23078G   23244.45857291  .00003887  00000-0  34104-4 0  9996,2 56773  69.9958 151.3205 0003026 267.8450  92.2399 15.69906294 14938,6737.302,91.725,361.206,357.128,0.0
56773.0,STARLINK-6296,PAYLOAD,2023-09-01 17:07:29,15.69875172,0.0006404,69.9982,150.6037,240.1673,119.8886,-2.1073e-05,-2.745e-05,0.0,0 STARLINK-6296,1 56773U 23078G   23244.71353891 -.00002745  00000-0 -21073-4 0  9997,2 56773  69.9982 150.6037 0006404 240.1673 119.8886 15.69875172 14975,6737.391,91.727,363.571,354.942,0.0
56773.0,STARLINK-6296,PAYLOAD,2023-09-01 20:10:27,15.70274423,0.0007816,69.9981,150.245,251.0994,108.9355,0.00078919,0.00097316,0.0,0 STARLINK-6296,1 56773U 23078G   23244.84059083  .00097316  00000-0  78919-3 0  9993,2 56773  69.9981 150.2450 0007816 251.0994 108.9355 15.70274423 14732,6736.249,91.704,363.379,352.849,0.0
56773.0,STARLINK-6296,PAYLOAD,2023-09-02 04:00:00,15.69897448,0.0003363,69.9992,149.3264,270.6513,130.2932,0.00046404,0.00055895,0.0,0 STARLINK-6296,1 56773U 23078G   23245.16667824  .00055895  00000-0  46404-3 0  9997,2 56773  69.9992 149.3264 0003363 270.6513 130.2932 15.69897448 15043,6737.327,91.726,361.458,356.927,0.0
56773.0,STARLINK-6296,PAYLOAD,2023-09-02 08:00:01,15.69953689,0.0003379,69.9989,148.8577,268.6007,353.9869,-0.00050328,-0.00060369,0.0,0 STARLINK-6296,1 56773U 23078G   23245.33334491 -.00060369  00000-0 -50328-3 0  9991,2 56773  69.9989 148.8577 0003379 268.6007 353.9869 15.69953689 15078,6737.166,91.722,361.308,356.755,0.0
56773.0,STARLINK-6296,PAYLOAD,2023-09-02 20:38:48,15.70073825,0.0004189,69.9978,147.3778,253.6683,106.4052,-0.00011339,-0.00013913,0.0,0 STARLINK-6296,1 56773U 23078G   23245.86028850 -.00013913  00000-0 -11339-3 0  9990,2 56773  69.9978 147.3778 0004189 253.6683 106.4052 15.70073825 14898,6736.823,91.715,361.51,355.866,0.0
56773.0,STARLINK-6296,PAYLOAD,2023-09-03 01:14:06,15.69988232,0.0003626,69.9988,146.8391,255.8826,104.1967,-0.00014236,-0.00017342,0.0,0 STARLINK-6296,1 56773U 23078G   23246.05146288 -.00017342  00000-0 -14236-3 0  9997,2 56773  69.9988 146.8391 0003626 255.8826 104.1967 15.69988232 15180,6737.068,91.72,361.376,356.49,0.0
56773.0,STARLINK-6296,PAYLOAD,2023-09-03 10:24:38,15.69941434,0.0003393,69.9987,145.7641,252.3126,107.7699,-0.00015556,-0.00018889,0.0,0 STARLINK-6296,1 56773U 23078G   23246.43378098 -.00018889  00000-0 -15556-3 0  9998,2 56773  69.9987 145.7641 0003393 252.3126 107.7699 15.69941434 15242,6737.202,91.723,361.352,356.781,0.0
56773.0,STARLINK-6296,PAYLOAD,2023-09-04 00:10:21,15.70032399,0.0003805,69.9981,144.1514,270.8368,89.2392,-0.00015831,-0.00019292,0.0,0 STARLINK-6296,1 56773U 23078G   23247.00719683 -.00019292  00000-0 -15831-3 0  9996,2 56773  69.9981 144.1514 0003805 270.8368  89.2392 15.70032399 15336,6736.941,91.718,361.37,356.243,0.0
56773.0,STARLINK-6296,PAYLOAD,2023-09-04 03:13:53,15.69978955,0.0003563,69.9984,143.7935,271.6448,88.434,-0.00024303,-0.00029401,0.0,0 STARLINK-6296,1 56773U 23078G   23247.13465116 -.00029401  00000-0 -24303-3 0  9996,2 56773  69.9984 143.7935 0003563 271.6448  88.4340 15.69978955 15351,6737.094,91.721,361.36,356.559,0.0
56773.0,STARLINK-6296,PAYLOAD,2023-09-04 10:52:40,15.69926348,0.0003574,69.9977,142.898,266.2799,93.7988,1.0978e-06,-8.1e-07,0.0,0 STARLINK-6296,1 56773U 23078G   23247.45325036 -.00000081  00000-0  10978-5 0  9994,2 56773  69.9977 142.8980 0003574 266.2799  93.7988 15.69926348 15147,6737.245,91.724,361.518,356.702,0.0
56773.0,STARLINK-6296,PAYLOAD,2023-09-04 16:59:41,15.69929322,0.0003542,69.9978,142.1813,266.7038,93.3753,7.0159e-06,6.31e-06,0.0,0 STARLINK-6296,1 56773U 23078G   23247.70811551  .00000631  00000-0  70159-5 0  9991,2 56773  69.9978 142.1813 0003542 266.7038  93.3753 15.69929322 15446,6737.236,91.724,361.488,356.715,0.0
56773.0,STARLINK-6296,PAYLOAD,2023-09-05 12:00:00,15.69927054,0.0003293,69.9988,139.9539,264.521,249.7703,-0.00018654,-0.00022585,0.0,0 STARLINK-6296,1 56773U 23078G   23248.50001157 -.00022585  00000-0 -18654-3 0  9997,2 56773  69.9988 139.9539 0003293 264.5210 249.7703 15.69927054 15562,6737.243,91.724,361.326,356.889,0.0
56773.0,STARLINK-6296,PAYLOAD,2023-09-05 14:00:01,15.69901229,0.0003292,69.9988,139.7198,262.6253,2.5074,0.00022398,0.00026779,0.0,0 STARLINK-6296,1 56773U 23078G   23248.58334491  .00026779  00000-0  22398-3 0  9992,2 56773  69.9988 139.7198 0003292 262.6253   2.5074 15.69901229  6030,6737.317,91.726,361.4,356.964,0.0
